{
  "type": "FeatureCollection",
  "features": [
    {
      "type": "Feature",
      "properties": {
        "norad_id": 38833,
        "name": "GPS BIIF-3  (PRN 24)",
        "group": "gps-ops",
        "lat": -12.571694782899998,
        "lon": 141.53126731797602,
        "alt_km": 20093.194374589013,
        "timestamp": "2025-12-17T19:34:08.297383+00:00",
        "meta_object_name": "GPS BIIF-3  (PRN 24)",
        "meta_object_id": "2012-053A",
        "meta_epoch": "2025-12-16T20:09:13.627584",
        "meta_mean_motion": 2.00565075,
        "meta_eccentricity": 0.01759464,
        "meta_inclination": 53.5585,
        "meta_ra_of_asc_node": 151.0706,
        "meta_arg_of_pericenter": 64.0575,
        "meta_mean_anomaly": 297.7402,
        "meta_ephemeris_type": 0,
        "meta_classification_type": "U",
        "meta_norad_cat_id": 38833,
        "meta_element_set_no": 999,
        "meta_rev_at_epoch": 9578,
        "meta_bstar": 0,
        "meta_mean_motion_dot": 7.2e-07,
        "meta_mean_motion_ddot": 0,
        "tle_line1": "1 38833U 12053A   25350.83974106  .00000072  00000+0  00000+0 0  9996",
        "tle_line2": "2 38833  53.5585 151.0706 0175946  64.0575 297.7402  2.00565075 95787"
      },
      "geometry": {
        "type": "Point",
        "coordinates": [
          141.53126731797602,
          -12.571694782899998
        ]
      }
    },
    {
      "type": "Feature",
      "properties": {
        "norad_id": 39166,
        "name": "GPS BIIF-4  (PRN 27)",
        "group": "gps-ops",
        "lat": 54.33461132980926,
        "lon": -2.6594624844531207,
        "alt_km": 19879.203490223787,
        "timestamp": "2025-12-17T19:34:08.297395+00:00",
        "meta_object_name": "GPS BIIF-4  (PRN 27)",
        "meta_object_id": "2013-023A",
        "meta_epoch": "2025-12-15T04:59:33.811872",
        "meta_mean_motion": 2.00564736,
        "meta_eccentricity": 0.01378529,
        "meta_inclination": 54.65,
        "meta_ra_of_asc_node": 276.4679,
        "meta_arg_of_pericenter": 48.4851,
        "meta_mean_anomaly": 312.7012,
        "meta_ephemeris_type": 0,
        "meta_classification_type": "U",
        "meta_norad_cat_id": 39166,
        "meta_element_set_no": 999,
        "meta_rev_at_epoch": 9219,
        "meta_bstar": 0,
        "meta_mean_motion_dot": -6.8e-07,
        "meta_mean_motion_ddot": 0,
        "tle_line1": "1 39166U 13023A   25349.20803023 -.00000068  00000+0  00000+0 0  9998",
        "tle_line2": "2 39166  54.6500 276.4679 0137852  48.4851 312.7012  2.00564736 92194"
      },
      "geometry": {
        "type": "Point",
        "coordinates": [
          -2.6594624844531207,
          54.33461132980926
        ]
      }
    },
    {
      "type": "Feature",
      "properties": {
        "norad_id": 39533,
        "name": "GPS BIIF-5  (PRN 30)",
        "group": "gps-ops",
        "lat": 53.410258578964985,
        "lon": -120.05978503514528,
        "alt_km": 20337.076071034444,
        "timestamp": "2025-12-17T19:34:08.297406+00:00",
        "meta_object_name": "GPS BIIF-5  (PRN 30)",
        "meta_object_id": "2014-008A",
        "meta_epoch": "2025-12-17T04:42:21.782016",
        "meta_mean_motion": 2.00574699,
        "meta_eccentricity": 0.00793343,
        "meta_inclination": 53.632,
        "meta_ra_of_asc_node": 156.7429,
        "meta_arg_of_pericenter": 226.5757,
        "meta_mean_anomaly": 132.7662,
        "meta_ephemeris_type": 0,
        "meta_classification_type": "U",
        "meta_norad_cat_id": 39533,
        "meta_element_set_no": 999,
        "meta_rev_at_epoch": 8603,
        "meta_bstar": 0,
        "meta_mean_motion_dot": 7.8e-07,
        "meta_mean_motion_ddot": 0,
        "tle_line1": "1 39533U 14008A   25351.19608544  .00000078  00000+0  00000+0 0  9992",
        "tle_line2": "2 39533  53.6320 156.7429 0079334 226.5757 132.7662  2.00574699 86034"
      },
      "geometry": {
        "type": "Point",
        "coordinates": [
          -120.05978503514528,
          53.410258578964985
        ]
      }
    },
    {
      "type": "Feature",
      "properties": {
        "norad_id": 39741,
        "name": "GPS BIIF-6  (PRN 06)",
        "group": "gps-ops",
        "lat": -47.248304648375544,
        "lon": -155.85078433358933,
        "alt_km": 20164.236739075175,
        "timestamp": "2025-12-17T19:34:08.297417+00:00",
        "meta_object_name": "GPS BIIF-6  (PRN 06)",
        "meta_object_id": "2014-026A",
        "meta_epoch": "2025-12-16T11:34:54.885216",
        "meta_mean_motion": 2.00561186,
        "meta_eccentricity": 0.00392879,
        "meta_inclination": 56.5821,
        "meta_ra_of_asc_node": 338.6307,
        "meta_arg_of_pericenter": 318.9019,
        "meta_mean_anomaly": 40.8126,
        "meta_ephemeris_type": 0,
        "meta_classification_type": "U",
        "meta_norad_cat_id": 39741,
        "meta_element_set_no": 999,
        "meta_rev_at_epoch": 8487,
        "meta_bstar": 0,
        "meta_mean_motion_dot": -8.7e-07,
        "meta_mean_motion_ddot": 0,
        "tle_line1": "1 39741U 14026A   25350.48257969 -.00000087  00000+0  00000+0 0  9996",
        "tle_line2": "2 39741  56.5821 338.6307 0039287 318.9019  40.8126  2.00561186 84870"
      },
      "geometry": {
        "type": "Point",
        "coordinates": [
          -155.85078433358933,
          -47.248304648375544
        ]
      }
    },
    {
      "type": "Feature",
      "properties": {
        "norad_id": 40105,
        "name": "GPS BIIF-7  (PRN 09)",
        "group": "gps-ops",
        "lat": -0.05506177368674237,
        "lon": -84.27028326121395,
        "alt_km": 20138.16160284789,
        "timestamp": "2025-12-17T19:34:08.297428+00:00",
        "meta_object_name": "GPS BIIF-7  (PRN 09)",
        "meta_object_id": "2014-045A",
        "meta_epoch": "2025-12-15T01:46:50.034144",
        "meta_mean_motion": 2.00572752,
        "meta_eccentricity": 0.00326343,
        "meta_inclination": 55.2306,
        "meta_ra_of_asc_node": 95.8057,
        "meta_arg_of_pericenter": 119.9544,
        "meta_mean_anomaly": 240.3532,
        "meta_ephemeris_type": 0,
        "meta_classification_type": "U",
        "meta_norad_cat_id": 40105,
        "meta_element_set_no": 999,
        "meta_rev_at_epoch": 8238,
        "meta_bstar": 0,
        "meta_mean_motion_dot": -3.6e-07,
        "meta_mean_motion_ddot": 0,
        "tle_line1": "1 40105U 14045A   25349.07419021 -.00000036  00000+0  00000+0 0  9999",
        "tle_line2": "2 40105  55.2306  95.8057 0032634 119.9544 240.3532  2.00572752 82388"
      },
      "geometry": {
        "type": "Point",
        "coordinates": [
          -84.27028326121395,
          -0.05506177368674237
        ]
      }
    },
    {
      "type": "Feature",
      "properties": {
        "norad_id": 40294,
        "name": "GPS BIIF-8  (PRN 03)",
        "group": "gps-ops",
        "lat": -56.80318184281003,
        "lon": -56.00060333350045,
        "alt_km": 20341.144910482926,
        "timestamp": "2025-12-17T19:34:08.297443+00:00",
        "meta_object_name": "GPS BIIF-8  (PRN 03)",
        "meta_object_id": "2014-068A",
        "meta_epoch": "2025-12-16T10:44:59.348832",
        "meta_mean_motion": 2.00565206,
        "meta_eccentricity": 0.00607873,
        "meta_inclination": 56.8606,
        "meta_ra_of_asc_node": 38.0026,
        "meta_arg_of_pericenter": 69.1046,
        "meta_mean_anomaly": 291.6035,
        "meta_ephemeris_type": 0,
        "meta_classification_type": "U",
        "meta_norad_cat_id": 40294,
        "meta_element_set_no": 999,
        "meta_rev_at_epoch": 8154,
        "meta_bstar": 0,
        "meta_mean_motion_dot": -8.2e-07,
        "meta_mean_motion_ddot": 0,
        "tle_line1": "1 40294U 14068A   25350.44790913 -.00000082  00000+0  00000+0 0  9999",
        "tle_line2": "2 40294  56.8606  38.0026 0060787  69.1046 291.6035  2.00565206 81545"
      },
      "geometry": {
        "type": "Point",
        "coordinates": [
          -56.00060333350045,
          -56.80318184281003
        ]
      }
    },
    {
      "type": "Feature",
      "properties": {
        "norad_id": 40534,
        "name": "GPS BIIF-9  (PRN 26)",
        "group": "gps-ops",
        "lat": 3.8369502678456424,
        "lon": 28.81529025009804,
        "alt_km": 20387.568949997483,
        "timestamp": "2025-12-17T19:34:08.297467+00:00",
        "meta_object_name": "GPS BIIF-9  (PRN 26)",
        "meta_object_id": "2015-013A",
        "meta_epoch": "2025-12-15T13:56:13.399296",
        "meta_mean_motion": 2.00562492,
        "meta_eccentricity": 0.01071717,
        "meta_inclination": 53.1973,
        "meta_ra_of_asc_node": 211.7725,
        "meta_arg_of_pericenter": 38.5497,
        "meta_mean_anomaly": 322.2983,
        "meta_ephemeris_type": 0,
        "meta_classification_type": "U",
        "meta_norad_cat_id": 40534,
        "meta_element_set_no": 999,
        "meta_rev_at_epoch": 7814,
        "meta_bstar": 0,
        "meta_mean_motion_dot": 7.3e-07,
        "meta_mean_motion_ddot": 0,
        "tle_line1": "1 40534U 15013A   25349.58071064  .00000073  00000+0  00000+0 0  9998",
        "tle_line2": "2 40534  53.1973 211.7725 0107171  38.5497 322.2983  2.00562492 78143"
      },
      "geometry": {
        "type": "Point",
        "coordinates": [
          28.81529025009804,
          3.8369502678456424
        ]
      }
    }
  ]
}